$$SOE
2460721.500000000, A.D. 2025-Feb-15 00:00:00.0000, -4.165157707531028E+06, 4.706384934906870E+08, 1.546141300673014E+07,
2460728.500000000, A.D. 2025-Feb-22 00:00:00.0000, -1.432753113076536E+07, 4.716508304799519E+08, 1.609067898870766E+07,
2460735.500000000, A.D. 2025-Mar-01 00:00:00.0000, -2.448312303798062E+07, 4.724459976318082E+08, 1.671249005935791E+07,
2460742.500000000, A.D. 2025-Mar-08 00:00:00.0000, -3.462733299112509E+07, 4.730253206341912E+08, 1.732661889732501E+07,
2460749.500000000, A.D. 2025-Mar-15 00:00:00.0000, -4.475563663576780E+07, 4.733902127143869E+08, 1.793284556024644E+07,
2460756.500000000, A.D. 2025-Mar-22 00:00:00.0000, -5.486358865790193E+07, 4.735421715472132E+08, 1.853095765450969E+07,
2460763.500000000, A.D. 2025-Mar-29 00:00:00.0000, -6.494682423175601E+07, 4.734827739764711E+08, 1.912075019012743E+07,
2460770.500000000, A.D. 2025-Apr-05 00:00:00.0000, -7.500105864175822E+07, 4.732136716929976E+08, 1.970202534772262E+07,
2460777.500000000, A.D. 2025-Apr-12 00:00:00.0000, -8.502208701091263E+07, 4.727365879769801E+08, 2.027459234292212E+07,
2460784.500000000, A.D. 2025-Apr-19 00:00:00.0000, -9.500578432954860E+07, 4.720533146249026E+08, 2.083826733351612E+07,
2460791.500000000, A.D. 2025-Apr-26 00:00:00.0000, -1.049481055199868E+08, 4.711657088598996E+08, 2.139287332813987E+07,
2460798.500000000, A.D. 2025-May-03 00:00:00.0000, -1.148450854304723E+08, 4.700756902466224E+08, 2.193824008789998E+07,
2460805.500000000, A.D. 2025-May-10 00:00:00.0000, -1.246928387365354E+08, 4.687852376209815E+08, 2.247420401932421E+07,
2460812.500000000, A.D. 2025-May-17 00:00:00.0000, -1.344875597195520E+08, 4.672963859950762E+08, 2.300060805222416E+07,
2460819.500000000, A.D. 2025-May-24 00:00:00.0000, -1.442255217549073E+08, 4.656112233837949E+08, 2.351730148240188E+07,
2460826.500000000, A.D. 2025-May-31 00:00:00.0000, -1.539030760982822E+08, 4.637318878647692E+08, 2.402413976665026E+07,
2460833.500000000, A.D. 2025-Jun-07 00:00:00.0000, -1.635166503773387E+08, 4.616605660775809E+08, 2.452098440565467E+07,
2460840.500000000, A.D. 2025-Jun-14 00:00:00.0000, -1.730627491585549E+08, 4.593994924967052E+08, 2.500770307747906E+07,
2460847.500000000, A.D. 2025-Jun-21 00:00:00.0000, -1.825379553764071E+08, 4.569509462054232E+08, 2.548416964296180E+07,
2460854.500000000, A.D. 2025-Jun-28 00:00:00.0000, -1.919389295027954E+08, 4.543172469334236E+08, 2.595026388073123E+07,
2460861.500000000, A.D. 2025-Jul-05 00:00:00.0000, -2.012624079796571E+08, 4.515007525156722E+08, 2.640587126756001E+07,
2460868.500000000, A.D. 2025-Jul-12 00:00:00.0000, -2.105052021099821E+08, 4.485038569675636E+08, 2.685088284775516E+07,
2460875.500000000, A.D. 2025-Jul-19 00:00:00.0000, -2.196641972217115E+08, 4.453289886001405E+08, 2.728519512748086E+07,
2460882.500000000, A.D. 2025-Jul-26 00:00:00.0000, -2.287363518988769E+08, 4.419786081175655E+08, 2.770870997044486E+07,
2460889.500000000, A.D. 2025-Aug-02 00:00:00.0000, -2.377186972187910E+08, 4.384552067173875E+08, 2.812133449103615E+07,
2460896.500000000, A.D. 2025-Aug-09 00:00:00.0000, -2.466083359758508E+08, 4.347613041779072E+08, 2.852298094190285E+07,
2460903.500000000, A.D. 2025-Aug-16 00:00:00.0000, -2.554024418187812E+08, 4.308994468683059E+08, 2.891356658409822E+07,
2460910.500000000, A.D. 2025-Aug-23 00:00:00.0000, -2.640982580123071E+08, 4.268722056968040E+08, 2.929301351467785E+07,
2460917.500000000, A.D. 2025-Aug-30 00:00:00.0000, -2.726930954979872E+08, 4.226821747096592E+08, 2.966124848032942E+07,
2460924.500000000, A.D. 2025-Sep-06 00:00:00.0000, -2.811843316761754E+08, 4.183319713407372E+08, 3.001820288926536E+07,
2460931.500000000, A.D. 2025-Sep-13 00:00:00.0000, -2.895694115823783E+08, 4.138242358286963E+08, 3.036381297206473E+07,
2460938.500000000, A.D. 2025-Sep-20 00:00:00.0000, -2.978458481855685E+08, 4.091616281549193E+08, 3.069801965712771E+07,
2460945.500000000, A.D. 2025-Sep-27 00:00:00.0000, -3.060112207522979E+08, 4.043468256106358E+08, 3.102076831821361E+07,
2460952.500000000, A.D. 2025-Oct-04 00:00:00.0000, -3.140631732960204E+08, 3.993825215312144E+08, 3.133200862328744E+07,
2460959.500000000, A.D. 2025-Oct-11 00:00:00.0000, -3.219994134867395E+08, 3.942714242526560E+08, 3.163169444195789E+07,
2460966.500000000, A.D. 2025-Oct-18 00:00:00.0000, -3.298177117391885E+08, 3.890162560130227E+08, 3.191978376312146E+07,
2460973.500000000, A.D. 2025-Oct-25 00:00:00.0000, -3.375159003428050E+08, 3.836197518075798E+08, 3.219623861098352E+07,
2460980.500000000, A.D. 2025-Nov-01 00:00:00.0000, -3.450918725970863E+08, 3.780846582120183E+08, 3.246102495715791E+07,
2460987.500000000, A.D. 2025-Nov-08 00:00:00.0000, -3.525435819203173E+08, 3.724137321419169E+08, 3.271411262308744E+07,
2460994.500000000, A.D. 2025-Nov-15 00:00:00.0000, -3.598690407856011E+08, 3.666097394894774E+08, 3.295547515432136E+07,
2461001.500000000, A.D. 2025-Nov-22 00:00:00.0000, -3.670663190827371E+08, 3.606754538567204E+08, 3.318508964750984E+07,
2461008.500000000, A.D. 2025-Nov-29 00:00:00.0000, -3.741335420604464E+08, 3.546136565187934E+08, 3.340293663670157E+07,
2461015.500000000, A.D. 2025-Dec-06 00:00:00.0000, -3.810688901281437E+08, 3.484271374804443E+08, 3.360900023652481E+07,
2461022.500000000, A.D. 2025-Dec-13 00:00:00.0000, -3.878706000843191E+08, 3.421186942547268E+08, 3.380326822687083E+07,
2461029.500000000, A.D. 2025-Dec-20 00:00:00.0000, -3.945369642778316E+08, 3.356911293846384E+08, 3.398573184213470E+07,
2461036.500000000, A.D. 2025-Dec-27 00:00:00.0000, -4.010663287773089E+08, 3.291472492964427E+08, 3.415638557519671E+07,
2461043.500000000, A.D. 2026-Jan-03 00:00:00.0000, -4.074570920099189E+08, 3.224898638685648E+08, 3.431522707969265E+07,
2461050.500000000, A.D. 2026-Jan-10 00:00:00.0000, -4.137077037606124E+08, 3.157217860368756E+08, 3.446225710506757E+07,
2461057.500000000, A.D. 2026-Jan-17 00:00:00.0000, -4.198166642997190E+08, 3.088458313441024E+08, 3.459747943566492E+07,
2461064.500000000, A.D. 2026-Jan-24 00:00:00.0000, -4.257825235614214E+08, 3.018648174553378E+08, 3.472090082863581E+07,
2461071.500000000, A.D. 2026-Jan-31 00:00:00.0000, -4.316038803500739E+08, 2.947815636316538E+08, 3.483253094798866E+07,
2461078.500000000, A.D. 2026-Feb-07 00:00:00.0000, -4.372793815131072E+08, 2.875988901039150E+08, 3.493238228451510E+07,
2461085.500000000, A.D. 2026-Feb-14 00:00:00.0000, -4.428077208275461E+08, 2.803196173307847E+08, 3.502047003716677E+07,
2461092.500000000, A.D. 2026-Feb-21 00:00:00.0000, -4.481876372125975E+08, 2.729465657169212E+08, 3.509681196751042E+07,
2461099.500000000, A.D. 2026-Feb-28 00:00:00.0000, -4.534179133536637E+08, 2.654825569435242E+08, 3.516142842103662E+07,
2461106.500000000, A.D. 2026-Mar-07 00:00:00.0000, -4.584973767976063E+08, 2.579304149604110E+08, 3.521434254483140E+07,
2461113.500000000, A.D. 2026-Mar-14 00:00:00.0000, -4.634249007437882E+08, 2.502929643063635E+08, 3.525558025647978E+07,
2461120.500000000, A.D. 2026-Mar-21 00:00:00.0000, -4.681994027472115E+08, 2.425730286537826E+08, 3.528517003759006E+07,
2461127.500000000, A.D. 2026-Mar-28 00:00:00.0000, -4.728198433440931E+08, 2.347734306042641E+08, 3.530314282043381E+07,
2461134.500000000, A.D. 2026-Apr-04 00:00:00.0000, -4.772852252051237E+08, 2.268969917687842E+08, 3.530953194436979E+07,
2461141.500000000, A.D. 2026-Apr-11 00:00:00.0000, -4.815945925430595E+08, 2.189465327721068E+08, 3.530437312773858E+07,
2461148.500000000, A.D. 2026-Apr-18 00:00:00.0000, -4.857470306153604E+08, 2.109248731739102E+08, 3.528770444027944E+07,
2461155.500000000, A.D. 2026-Apr-25 00:00:00.0000, -4.897416652759290E+08, 2.028348313203526E+08, 3.525956627325776E+07,
2461162.500000000, A.D. 2026-May-02 00:00:00.0000, -4.935776625450941E+08, 1.946792240954933E+08, 3.522000130223828E+07,
2461169.500000000, A.D. 2026-May-09 00:00:00.0000, -4.972542280730150E+08, 1.864608665054777E+08, 3.516905442580395E+07,
2461176.500000000, A.D. 2026-May-16 00:00:00.0000, -5.007706061181794E+08, 1.781825712330514E+08, 3.510677265695460E+07,
2461183.500000000, A.D. 2026-May-23 00:00:00.0000, -5.041260779886014E+08, 1.698471491839603E+08, 3.503320504599775E+07,
2461190.500000000, A.D. 2026-May-30 00:00:00.0000, -5.073199620238839E+08, 1.614574113439075E+08, 3.494840285160758E+07,
2461197.500000000, A.D. 2026-Jun-06 00:00:00.0000, -5.103516154354759E+08, 1.530161686720694E+08, 3.485241972150341E+07,
2461204.500000000, A.D. 2026-Jun-13 00:00:00.0000, -5.132204343377747E+08, 1.445262302296517E+08, 3.474531156257094E+07,
2461211.500000000, A.D. 2026-Jun-20 00:00:00.0000, -5.159258524691867E+08, 1.359904024675317E+08, 3.462713638518701E+07,
2461218.500000000, A.D. 2026-Jun-27 00:00:00.0000, -5.184673403018388E+08, 1.274114893307094E+08, 3.449795424942743E+07,
2461225.500000000, A.D. 2026-Jul-04 00:00:00.0000, -5.208444045416539E+08, 1.187922924035430E+08, 3.435782724960653E+07,
2461232.500000000, A.D. 2026-Jul-11 00:00:00.0000, -5.230565877660856E+08, 1.101356109635777E+08, 3.420681950287341E+07,
2461239.500000000, A.D. 2026-Jul-18 00:00:00.0000, -5.251034681073957E+08, 1.014442419696173E+08, 3.404499713523826E+07,
2461246.500000000, A.D. 2026-Jul-25 00:00:00.0000, -5.269846589571739E+08, 9.272097998660663E+07, 3.387242826277780E+07,
2461253.500000000, A.D. 2026-Aug-01 00:00:00.0000, -5.286998086438464E+08, 8.396861699889608E+07, 3.368918295945246E+07,
2461260.500000000, A.D. 2026-Aug-08 00:00:00.0000, -5.302485998679761E+08, 7.518994207554297E+07, 3.349533318870773E+07,
2461267.500000000, A.D. 2026-Aug-15 00:00:00.0000, -5.316307484798887E+08, 6.638774133744258E+07, 3.329095269745019E+07,
2461274.500000000, A.D. 2026-Aug-22 00:00:00.0000, -5.328460023602986E+08, 5.756479944675412E+07, 3.307611704188875E+07,
2461281.500000000, A.D. 2026-Aug-29 00:00:00.0000, -5.338941426934206E+08, 4.872390124495156E+07, 3.285090384293165E+07,
2461288.500000000, A.D. 2026-Sep-05 00:00:00.0000, -5.347749854999021E+08, 3.986783067111634E+07, 3.261539284107410E+07,
$$EOE